[Satellite]
VERSION=1.1
NAME=ORBCOMM FM105 [+]
NICKNAME=ORBCOMM FM105 [+]
TLE1=1 41181U 15081C   17186.24084729 -.00000106  00000-0  15111-4 0  9990
TLE2=2 41181  47.0022 281.0407 0002583 274.6328  85.4256 14.43241308 81148
